ONEWEB-0136             
1 47282U 20100AA  26191.36766025 -.00000100  00000+0 -31200-3 0  9991
2 47282  87.8957 346.0414 0001946 101.5151 258.6197 13.12441550267701
ONEWEB-0137             
1 47283U 20100AB  26191.40154587  .00000058  00000+0  12501-3 0  9994
2 47283  87.8967 346.0449 0001848  91.1434 268.9906 13.12444290267616
ONEWEB-0138             
1 47284U 20100AC  26191.37951937 -.00000341  00000+0 -98280-3 0  9990
2 47284  87.8966 346.0538 0002007 100.2653 259.8702 13.12442477267694
ONEWEB-0139             
1 47285U 20100AD  26190.73419767  .00000425  00000+0  11461-2 0  9996
2 47285  87.8960 346.1683 0001899  96.7488 263.3857 13.12441897267689
ONEWEB-0140             
1 47286U 20100AE  26191.37443609 -.00000314  00000+0 -90912-3 0  9998
2 47286  87.8964 346.0327 0001685  98.3455 261.7865 13.12441834267731
ONEWEB-0141             
1 47287U 20100AF  26191.42004730  .00000566  00000+0  15388-2 0  9993
2 47287  87.8945 346.0276 0001724  85.2223 274.9103 13.12442553267725
ONEWEB-0142             
1 47288U 20100AG  26191.40846905  .00000309  00000+0  82218-3 0  9992
2 47288  87.8958 346.0505 0002220  90.1549 269.9834 13.12444699267710
ONEWEB-0143             
1 47289U 20100AH  26190.73235834  .00000563  00000+0  15307-2 0  9997
2 47289  87.8961 346.1848 0001885  94.9126 265.2218 13.12443167267607
ONEWEB-0144             
1 47290U 20100AJ  26191.38968549 -.00000278  00000+0 -80778-3 0  9997
2 47290  87.8965 346.0295 0002215  99.4052 260.7327 13.12443243267611
ONEWEB-0145             
1 47291U 20100AK  26191.36088810  .00000031  00000+0  50309-4 0  9993
2 47291  87.8955 346.0600 0001953  96.0678 264.0673 13.12441390267809
ONEWEB-0146             
1 47292U 20100AL  26191.35750169  .00000212  00000+0  55269-3 0  9996
2 47292  87.8960 346.0561 0001484  89.3250 270.8049 13.12442380267714
ONEWEB-0147             
1 47293U 20100AM  26191.39985343  .00000022  00000+0  24543-4 0  9996
2 47293  87.8959 346.0282 0001866 101.7742 258.3596 13.12444525267612
ONEWEB-0115             
1 48042U 21025A   26191.33368874  .00000295  00000+0  77200-3 0  9993
2 48042  87.8976 315.6172 0001870 100.7676 259.3664 13.13471057256632
ONEWEB-0152             
1 48043U 21025B   26191.27106328 -.00004517  00000+0 -12406-1 0  9999
2 48043  87.9022 315.6270 0002460 161.4675 198.6544 13.13498083256588
ONEWEB-0153             
1 48044U 21025C   26191.32523689  .00000272  00000+0  71014-3 0  9993
2 48044  87.8973 315.6175 0001979  97.3585 262.7769 13.13470190256589
ONEWEB-0154             
1 48045U 21025D   26191.32185347  .00000199  00000+0  51004-3 0  9994
2 48045  87.8976 315.6179 0001883 107.5291 252.6044 13.13470601256546
